OBJECT_NAME,OBJECT_ID,EPOCH,MEAN_MOTION,ECCENTRICITY,INCLINATION,RA_OF_ASC_NODE,ARG_OF_PERICENTER,MEAN_ANOMALY,EPHEMERIS_TYPE,CLASSIFICATION_TYPE,NORAD_CAT_ID,ELEMENT_SET_NO,REV_AT_EPOCH,BSTAR,MEAN_MOTION_DOT,MEAN_MOTION_DDOT
STARLINK-11320 [DTC],2024-209D,2026-06-13T12:20:51.857376,15.69738626,.00019442,53.1579,259.2181,39.8312,320.2849,0,U,61942,999,9172,.11908902E-2,.146436E-2,0
STARLINK-11425 [DTC],2024-209E,2026-06-13T13:45:28.146816,15.69710647,.0003266,53.1576,258.8736,22.8803,337.2360,0,U,61943,999,9173,.15711E-2,.194299E-2,0
STARLINK-11422 [DTC],2024-209F,2026-06-13T13:38:22.746048,15.69773951,.0000672,53.1574,258.8409,75.3633,284.7460,0,U,61944,999,9173,.89719E-3,.109846E-2,0
STARLINK-11421 [DTC],2024-209G,2026-06-13T13:31:20.553312,15.69689603,.0001636,53.1577,258.8056,45.5694,314.5458,0,U,61945,999,9173,.11756E-2,.144217E-2,0
STARLINK-11410 [DTC],2024-209H,2026-06-13T13:24:16.277472,15.69697710,.00011144,53.1581,258.7733,92.6920,267.4225,0,U,61946,999,9177,.14638106E-2,.180569E-2,0
STARLINK-11390 [DTC],2024-209J,2026-06-13T13:17:12.690240,15.69690866,.00011128,53.1578,258.7414,71.9090,288.2049,0,U,61947,999,9177,.12783757E-2,.157126E-2,0
STARLINK-11414 [DTC],2024-209K,2026-06-13T12:48:57.452256,15.69684846,.00010451,53.1574,258.6115,74.0842,286.0291,0,U,61948,999,9177,.1294719E-2,.159141E-2,0
STARLINK-11424 [DTC],2024-209L,2026-06-13T12:56:01.061952,15.69674197,.00010236,53.1574,258.6446,88.0648,272.0487,0,U,61949,999,9173,.14289343E-2,.175982E-2,0
STARLINK-11423 [DTC],2024-209M,2026-06-13T14:41:49.784928,15.69723710,.0001767,53.1572,258.4003,132.9304,227.1863,0,U,61950,999,9178,.68666E-3,.8349E-3,0
STARLINK-11395 [DTC],2024-209N,2026-06-13T13:03:05.117472,15.69677637,.00010667,53.1576,258.6772,78.3193,281.7945,0,U,61951,999,9173,.13015582E-2,.159953E-2,0
STARLINK-32572,2024-209P,2026-06-13T20:36:15.263136,15.30193835,.0001218,53.1591,55.5083,86.2816,273.8324,0,U,61952,999,8962,.47699E-3,.13791E-3,0
STARLINK-32585,2024-209Q,2026-06-13T20:00:01.999008,15.49293840,.0000866,53.1602,51.6341,87.2793,354.0245,0,U,61953,999,583,.18679E-3,.9948E-4,0
STARLINK-32574,2024-209R,2026-06-13T20:00:01.999008,15.49292254,.0001001,53.1603,51.6061,105.3633,349.1809,0,U,61954,999,578,.21366E-3,.11445E-3,0
STARLINK-32583,2024-209S,2026-06-13T20:12:54.423648,15.49335365,.0001145,53.1598,51.1347,102.6765,257.4372,0,U,61955,999,8969,.89386E-3,.49627E-3,0
STARLINK-32273,2024-209T,2026-06-13T20:43:51.241728,15.30209623,.0001577,53.1587,55.5348,123.0645,237.0507,0,U,61956,999,8962,.10423E-2,.30647E-3,0
STARLINK-32359,2024-209U,2026-06-13T19:56:26.816352,15.49360278,.0001138,53.1595,51.0647,86.1844,273.9295,0,U,61957,999,8970,.11196E-2,.6243E-3,0
STARLINK-32566,2024-209V,2026-06-13T10:02:17.033280,15.49319813,.0001132,53.1603,52.7592,88.0995,272.0144,0,U,61958,999,8964,.14723646E-2,.82337E-3,0
STARLINK-32499,2024-210A,2026-06-13T19:13:56.304768,15.27580286,.0003373,43.0015,356.6379,272.4847,87.5619,0,U,61959,999,8962,.78008E-3,.21268E-3,0
STARLINK-32372,2024-210B,2026-06-13T19:25:02.345088,15.27597402,.0002236,43.0024,356.6981,280.4952,79.5648,0,U,61960,999,8948,.11998E-2,.32919E-3,0
STARLINK-32452,2024-210C,2026-06-13T05:31:57.644256,15.27593215,.0002572,43.0012,353.1744,264.4478,95.6080,0,U,61961,999,8960,.64761E-3,.17609E-3,0
STARLINK-32458,2024-210D,2026-06-13T19:03:46.008000,15.27589357,.0005336,43.0019,342.7377,281.0721,78.9530,0,U,61962,999,8977,.9708E-3,.26564E-3,0
STARLINK-32487,2024-210E,2026-06-13T20:07:35.515200,15.27595874,.0006695,43.0010,356.9125,281.8798,78.1303,0,U,61963,999,8961,.1065E-2,.29189E-3,0
STARLINK-32513,2024-210F,2026-06-13T18:47:05.764704,15.27606806,.0001715,42.9963,342.6537,266.0138,94.0518,0,U,61964,999,8977,.99447E-3,.27228E-3,0
STARLINK-32514,2024-210G,2026-06-13T19:44:55.813344,15.27588964,.0000401,43.0061,349.8791,259.9252,100.1554,0,U,61965,999,8969,.62405E-3,.16955E-3,0
STARLINK-32498,2024-210H,2026-06-10T19:49:42.318336,15.27562832,.00013125,42.9954,359.1581,111.2019,248.8973,0,U,61966,999,8932,.7027474E-3,.19116E-3,0
STARLINK-32518,2024-210J,2026-06-13T18:47:44.869344,15.27586685,.0001869,43.0027,350.2486,274.7533,85.3105,0,U,61967,999,8955,.91428E-3,.24988E-3,0
STARLINK-32471,2024-210K,2026-06-13T19:30:07.879680,15.27599531,.0000133,43.0008,349.8039,260.1242,99.9595,0,U,61968,999,8970,.10448E-2,.28616E-3,0
STARLINK-32450,2024-210L,2026-06-13T05:28:14.549952,15.27608824,.0005004,43.0016,353.1543,263.4946,96.5336,0,U,61969,999,8947,.99089E-3,.27137E-3,0
STARLINK-32613,2024-210M,2026-06-13T06:26:05.173152,15.27614761,.0001712,43.0044,0.3745,269.0604,91.0052,0,U,61970,999,8953,.74444E-3,.20301E-3,0
STARLINK-32610,2024-210N,2026-06-13T16:00:01.998720,15.27577403,.0001479,43.0031,358.0232,277.5831,159.3514,0,U,61971,999,587,-.35555E-3,-.10032E-3,0
