STARLINK-11320 [DTC]    
1 61942U 24209D   26164.51448909  .00146436  00000+0  11909-2 0  9993
2 61942  53.1579 259.2181 0001944  39.8312 320.2849 15.69738626 91726
STARLINK-11425 [DTC]    
1 61943U 24209E   26164.57324244  .00194299  00000+0  15711-2 0  9990
2 61943  53.1576 258.8736 0003266  22.8803 337.2360 15.69710647 91731
STARLINK-11422 [DTC]    
1 61944U 24209F   26164.56831882  .00109846  00000+0  89719-3 0  9995
2 61944  53.1574 258.8409 0000672  75.3633 284.7460 15.69773951 91733
STARLINK-11421 [DTC]    
1 61945U 24209G   26164.56343233  .00144217  00000+0  11756-2 0  9990
2 61945  53.1577 258.8056 0001636  45.5694 314.5458 15.69689603 91731
STARLINK-11410 [DTC]    
1 61946U 24209H   26164.55852173  .00180569  00000+0  14638-2 0  9990
2 61946  53.1581 258.7733 0001114  92.6920 267.4225 15.69697710 91774
STARLINK-11390 [DTC]    
1 61947U 24209J   26164.55361910  .00157126  00000+0  12784-2 0  9998
2 61947  53.1578 258.7414 0001112  71.9090 288.2049 15.69690866 91773
STARLINK-11414 [DTC]    
1 61948U 24209K   26164.53399829  .00159141  00000+0  12947-2 0  9997
2 61948  53.1574 258.6115 0001045  74.0842 286.0291 15.69684846 91777
STARLINK-11424 [DTC]    
1 61949U 24209L   26164.53890118  .00175982  00000+0  14289-2 0  9997
2 61949  53.1574 258.6446 0001023  88.0648 272.0487 15.69674197 91736
STARLINK-11423 [DTC]    
1 61950U 24209M   26164.61238177  .00083490  00000+0  68666-3 0  9990
2 61950  53.1572 258.4003 0001767 132.9304 227.1863 15.69723710 91786
STARLINK-11395 [DTC]    
1 61951U 24209N   26164.54380923  .00159953  00000+0  13016-2 0  9996
2 61951  53.1576 258.6772 0001066  78.3193 281.7945 15.69677637 91735
STARLINK-32572          
1 61952U 24209P   26164.85850999  .00013791  00000+0  47699-3 0  9990
2 61952  53.1591  55.5083 0001218  86.2816 273.8324 15.30193835 89620
STARLINK-32585          
1 61953U 24209Q   26164.83335647  .00009948  00000+0  18679-3 0  9992
2 61953  53.1602  51.6341 0000866  87.2793 354.0245 15.49293840  5833
STARLINK-32574          
1 61954U 24209R   26164.83335647  .00011445  00000+0  21366-3 0  9995
2 61954  53.1603  51.6061 0001001 105.3633 349.1809 15.49292254  5784
STARLINK-32583          
1 61955U 24209S   26164.84229657  .00049627  00000+0  89386-3 0  9999
2 61955  53.1598  51.1347 0001145 102.6765 257.4372 15.49335365 89694
STARLINK-32273          
1 61956U 24209T   26164.86378752  .00030647  00000+0  10423-2 0  9990
2 61956  53.1587  55.5348 0001577 123.0645 237.0507 15.30209623 89629
STARLINK-32359          
1 61957U 24209U   26164.83086593  .00062430  00000+0  11196-2 0  9990
2 61957  53.1595  51.0647 0001138  86.1844 273.9295 15.49360278 89701
STARLINK-32566          
1 61958U 24209V   26164.41825270  .00082337  00000+0  14724-2 0  9996
2 61958  53.1603  52.7592 0001132  88.0995 272.0144 15.49319813 89646
STARLINK-32499          
1 61959U 24210A   26164.80134612  .00021268  00000+0  78008-3 0  9997
2 61959  43.0015 356.6379 0003373 272.4847  87.5619 15.27580286 89629
STARLINK-32372          
1 61960U 24210B   26164.80905492  .00032919  00000+0  11998-2 0  9990
2 61960  43.0024 356.6981 0002236 280.4952  79.5648 15.27597402 89488
STARLINK-32452          
1 61961U 24210C   26164.23052829  .00017609  00000+0  64761-3 0  9991
2 61961  43.0012 353.1744 0002572 264.4478  95.6080 15.27593215 89604
STARLINK-32458          
1 61962U 24210D   26164.79428250  .00026564  00000+0  97080-3 0  9998
2 61962  43.0019 342.7377 0005336 281.0721  78.9530 15.27589357 89779
STARLINK-32487          
1 61963U 24210E   26164.83860550  .00029189  00000+0  10650-2 0  9990
2 61963  43.0010 356.9125 0006695 281.8798  78.1303 15.27595874 89614
STARLINK-32513          
1 61964U 24210F   26164.78270561  .00027228  00000+0  99447-3 0  9996
2 61964  42.9963 342.6537 0001715 266.0138  94.0518 15.27606806 89770
STARLINK-32514          
1 61965U 24210G   26164.82286821  .00016955  00000+0  62405-3 0  9997
2 61965  43.0061 349.8791 0000401 259.9252 100.1554 15.27588964 89696
STARLINK-32498          
1 61966U 24210H   26161.82618424  .00019116  00000+0  70275-3 0  9999
2 61966  42.9954 359.1581 0001312 111.2019 248.8973 15.27562832 89321
STARLINK-32518          
1 61967U 24210J   26164.78315821  .00024988  00000+0  91428-3 0  9999
2 61967  43.0027 350.2486 0001869 274.7533  85.3105 15.27586685 89552
STARLINK-32471          
1 61968U 24210K   26164.81259120  .00028616  00000+0  10448-2 0  9997
2 61968  43.0008 349.8039 0000133 260.1242  99.9595 15.27599531 89704
STARLINK-32450          
1 61969U 24210L   26164.22794618  .00027137  00000+0  99089-3 0  9995
2 61969  43.0016 353.1543 0005004 263.4946  96.5336 15.27608824 89477
STARLINK-32613          
1 61970U 24210M   26164.26811543  .00020301  00000+0  74444-3 0  9992
2 61970  43.0044   0.3745 0001712 269.0604  91.0052 15.27614761 89539
STARLINK-32610          
1 61971U 24210N   26164.66668980 -.00010032  00000+0 -35555-3 0  9994
2 61971  43.0031 358.0232 0001479 277.5831 159.3514 15.27577403  5873
